[{"OBJECT_NAME":"STARLINK-6353","OBJECT_ID":"2023-088J","EPOCH":"2026-03-09T02:40:57.857664","MEAN_MOTION":15.025351,"ECCENTRICITY":0.00011101,"INCLINATION":43.0016,"RA_OF_ASC_NODE":110.5408,"ARG_OF_PERICENTER":269.8975,"MEAN_ANOMALY":90.174,"EPHEMERIS_TYPE":0,"CLASSIFICATION_TYPE":"U","NORAD_CAT_ID":57056,"ELEMENT_SET_NO":999,"REV_AT_EPOCH":15028,"BSTAR":-1.203375e-5,"MEAN_MOTION_DOT":-3.66e-6,"MEAN_MOTION_DDOT":0},{"OBJECT_NAME":"OBJECT D","OBJECT_ID":"2018-099D","EPOCH":"2026-03-09T21:55:11.400096","MEAN_MOTION":15.0608919,"ECCENTRICITY":0.00104801,"INCLINATION":97.4323,"RA_OF_ASC_NODE":113.3477,"ARG_OF_PERICENTER":333.2621,"MEAN_ANOMALY":26.8065,"EPHEMERIS_TYPE":0,"CLASSIFICATION_TYPE":"U","NORAD_CAT_ID":43761,"ELEMENT_SET_NO":999,"REV_AT_EPOCH":39716,"BSTAR":0.0002280609,"MEAN_MOTION_DOT":3.276e-5,"MEAN_MOTION_DDOT":0}]
